{"type": "FeatureCollection", "features": [ {"type": "Feature", "properties": {"norad_id": 66363, "name": "STARLINK-35806", "group": "last-30-days", "lat": 27.86337799080247, "lon": -13.237763039574485, "alt_km": 368.3122383413938, "timestamp": "2025-12-02T23:34:14.289588+00:00", "meta": {"OBJECT_NAME": "STARLINK-35806", "OBJECT_ID": "2025-254R", "EPOCH": "2025-12-02T12:00:05.998752", "MEAN_MOTION": 15.6744961, "ECCENTRICITY": 0.0001341, "INCLINATION": 53.1587, "RA_OF_ASC_NODE": 325.7763, "ARG_OF_PERICENTER": 86.9352, "MEAN_ANOMALY": 109.0738, "EPHEMERIS_TYPE": 0, "CLASSIFICATION_TYPE": "U", "NORAD_CAT_ID": 66363, "ELEMENT_SET_NO": 999, "REV_AT_EPOCH": 524, "BSTAR": -0.020201, "MEAN_MOTION_DOT": -0.01969132, "MEAN_MOTION_DDOT": 0}, "tle": {"line1": "1 66363U 25254R   25336.50006943 -.01969132  00000+0 -20201-1 0  9996", "line2": "2 66363  53.1587 325.7763 0001341  86.9352 109.0738 15.67449610  5242"}}, "geometry": {"type": "Point", "coordinates": [-13.237763039574485, 27.86337799080247]}}, {"type": "Feature", "properties": {"norad_id": 66364, "name": "STARLINK-35797", "group": "last-30-days", "lat": 30.651717765939974, "lon": -10.217223791902807, "alt_km": 367.93222986646015, "timestamp": "2025-12-02T23:34:14.289600+00:00", "meta": {"OBJECT_NAME": "STARLINK-35797", "OBJECT_ID": "2025-254S", "EPOCH": "2025-12-02T12:00:05.998752", "MEAN_MOTION": 15.67462619, "ECCENTRICITY": 0.000116, "INCLINATION": 53.159, "RA_OF_ASC_NODE": 325.7683, "ARG_OF_PERICENTER": 87.3365, "MEAN_ANOMALY": 112.5068, "EPHEMERIS_TYPE": 0, "CLASSIFICATION_TYPE": "U", "NORAD_CAT_ID": 66364, "ELEMENT_SET_NO": 999, "REV_AT_EPOCH": 527, "BSTAR": -0.020447, "MEAN_MOTION_DOT": -0.01991032, "MEAN_MOTION_DDOT": 0}, "tle": {"line1": "1 66364U 25254S   25336.50006943 -.01991032  00000+0 -20447-1 0  9993", "line2": "2 66364  53.1590 325.7683 0001160  87.3365 112.5068 15.67462619  5278"}}, "geometry": {"type": "Point", "coordinates": [-10.217223791902807, 30.651717765939974]}}, {"type": "Feature", "properties": {"norad_id": 66365, "name": "STARLINK-35827", "group": "last-30-days", "lat": 33.36324477103304, "lon": -7.021209569788244, "alt_km": 367.4377640693565, "timestamp": "2025-12-02T23:34:14.289611+00:00", "meta": {"OBJECT_NAME": "STARLINK-35827", "OBJECT_ID": "2025-254T", "EPOCH": "2025-12-02T12:00:05.998752", "MEAN_MOTION": 15.67453271, "ECCENTRICITY": 0.0001207, "INCLINATION": 53.159, "RA_OF_ASC_NODE": 325.7611, "ARG_OF_PERICENTER": 91.0408, "MEAN_ANOMALY": 112.6368, "EPHEMERIS_TYPE": 0, "CLASSIFICATION_TYPE": "U", "NORAD_CAT_ID": 66365, "ELEMENT_SET_NO": 999, "REV_AT_EPOCH": 524, "BSTAR": -0.020281, "MEAN_MOTION_DOT": -0.01976221, "MEAN_MOTION_DDOT": 0}, "tle": {"line1": "1 66365U 25254T   25336.50006943 -.01976221  00000+0 -20281-1 0  9993", "line2": "2 66365  53.1590 325.7611 0001207  91.0408 112.6368 15.67453271  5247"}}, "geometry": {"type": "Point", "coordinates": [-7.021209569788244, 33.36324477103304]}}, {"type": "Feature", "properties": {"norad_id": 66366, "name": "STARLINK-35845", "group": "last-30-days", "lat": 32.014955817213846, "lon": -8.646162649233217, "alt_km": 367.5794840167073, "timestamp": "2025-12-02T23:34:14.289621+00:00", "meta": {"OBJECT_NAME": "STARLINK-35845", "OBJECT_ID": "2025-254U", "EPOCH": "2025-12-02T12:00:05.998752", "MEAN_MOTION": 15.67453333, "ECCENTRICITY": 0.0001406, "INCLINATION": 53.1588, "RA_OF_ASC_NODE": 325.7643, "ARG_OF_PERICENTER": 90.7287, "MEAN_ANOMALY": 111.0292, "EPHEMERIS_TYPE": 0, "CLASSIFICATION_TYPE": "U", "NORAD_CAT_ID": 66366, "ELEMENT_SET_NO": 999, "REV_AT_EPOCH": 527, "BSTAR": -0.020262, "MEAN_MOTION_DOT": -0.01974755, "MEAN_MOTION_DDOT": 0}, "tle": {"line1": "1 66366U 25254U   25336.50006943 -.01974755  00000+0 -20262-1 0  9993", "line2": "2 66366  53.1588 325.7643 0001406  90.7287 111.0292 15.67453333  5273"}}, "geometry": {"type": "Point", "coordinates": [-8.646162649233217, 32.014955817213846]}}, {"type": "Feature", "properties": {"norad_id": 66367, "name": "STARLINK-35846", "group": "last-30-days", "lat": 34.68654210141165, "lon": -5.35119955761531, "alt_km": 367.0537130343282, "timestamp": "2025-12-02T23:34:14.289631+00:00", "meta": {"OBJECT_NAME": "STARLINK-35846", "OBJECT_ID": "2025-254V", "EPOCH": "2025-12-02T12:00:05.998752", "MEAN_MOTION": 15.67456356, "ECCENTRICITY": 0.0001406, "INCLINATION": 53.159, "RA_OF_ASC_NODE": 325.7559, "ARG_OF_PERICENTER": 85.6664, "MEAN_ANOMALY": 119.926, "EPHEMERIS_TYPE": 0, "CLASSIFICATION_TYPE": "U", "NORAD_CAT_ID": 66367, "ELEMENT_SET_NO": 999, "REV_AT_EPOCH": 522, "BSTAR": -0.020325, "MEAN_MOTION_DOT": -0.01980328, "MEAN_MOTION_DDOT": 0}, "tle": {"line1": "1 66367U 25254V   25336.50006943 -.01980328  00000+0 -20325-1 0  9997", "line2": "2 66367  53.1590 325.7559 0001406  85.6664 119.9260 15.67456356  5220"}}, "geometry": {"type": "Point", "coordinates": [-5.35119955761531, 34.68654210141165]}}, {"type": "Feature", "properties": {"norad_id": 66368, "name": "STARLINK-34861", "group": "last-30-days", "lat": 52.39689932720604, "lon": 40.105553318593216, "alt_km": 338.4033850698743, "timestamp": "2025-12-02T23:34:14.289644+00:00", "meta": {"OBJECT_NAME": "STARLINK-34861", "OBJECT_ID": "2025-254W", "EPOCH": "2025-12-02T11:02:08.077344", "MEAN_MOTION": 15.7425231, "ECCENTRICITY": 0.0001543, "INCLINATION": 53.1569, "RA_OF_ASC_NODE": 325.9067, "ARG_OF_PERICENTER": 119.9542, "MEAN_ANOMALY": 240.1631, "EPHEMERIS_TYPE": 0, "CLASSIFICATION_TYPE": "U", "NORAD_CAT_ID": 66368, "ELEMENT_SET_NO": 999, "REV_AT_EPOCH": 406, "BSTAR": 0.0011794, "MEAN_MOTION_DOT": 0.00176236, "MEAN_MOTION_DDOT": 0}, "tle": {"line1": "1 66368U 25254W   25336.45981571  .00176236  00000+0  11794-2 0  9994", "line2": "2 66368  53.1569 325.9067 0001543 119.9542 240.1631 15.74252310  4063"}}, "geometry": {"type": "Point", "coordinates": [40.105553318593216, 52.39689932720604]}}, {"type": "Feature", "properties": {"norad_id": 66369, "name": "STARLINK-35795", "group": "last-30-days", "lat": 51.98780709104641, "lon": 36.913482024401304, "alt_km": 338.80393017440565, "timestamp": "2025-12-02T23:34:14.289655+00:00", "meta": {"OBJECT_NAME": "STARLINK-35795", "OBJECT_ID": "2025-254X", "EPOCH": "2025-12-02T11:02:37.266720", "MEAN_MOTION": 15.74234838, "ECCENTRICITY": 0.00012, "INCLINATION": 53.1571, "RA_OF_ASC_NODE": 325.9091, "ARG_OF_PERICENTER": 115.0326, "MEAN_ANOMALY": 245.0818, "EPHEMERIS_TYPE": 0, "CLASSIFICATION_TYPE": "U", "NORAD_CAT_ID": 66369, "ELEMENT_SET_NO": 999, "REV_AT_EPOCH": 406, "BSTAR": 0.00083807, "MEAN_MOTION_DOT": 0.00124177, "MEAN_MOTION_DDOT": 0}, "tle": {"line1": "1 66369U 25254X   25336.46015355  .00124177  00000+0  83807-3 0  9996", "line2": "2 66369  53.1571 325.9091 0001200 115.0326 245.0818 15.74234838  4067"}}, "geometry": {"type": "Point", "coordinates": [36.913482024401304, 51.98780709104641]}}, {"type": "Feature", "properties": {"norad_id": 66370, "name": "STARLINK-35824", "group": "last-30-days", "lat": 52.70696862197101, "lon": 43.216635331675064, "alt_km": 338.13569186163477, "timestamp": "2025-12-02T23:34:14.289665+00:00", "meta": {"OBJECT_NAME": "STARLINK-35824", "OBJECT_ID": "2025-254Y", "EPOCH": "2025-12-02T11:01:38.991648", "MEAN_MOTION": 15.74251859, "ECCENTRICITY": 0.0001645, "INCLINATION": 53.1569, "RA_OF_ASC_NODE": 325.905, "ARG_OF_PERICENTER": 104.7981, "MEAN_ANOMALY": 255.3221, "EPHEMERIS_TYPE": 0, "CLASSIFICATION_TYPE": "U", "NORAD_CAT_ID": 66370, "ELEMENT_SET_NO": 999, "REV_AT_EPOCH": 406, "BSTAR": 0.0011821, "MEAN_MOTION_DOT": 0.00176643, "MEAN_MOTION_DDOT": 0}, "tle": {"line1": "1 66370U 25254Y   25336.45947907  .00176643  00000+0  11821-2 0  9995", "line2": "2 66370  53.1569 325.9050 0001645 104.7981 255.3221 15.74251859  4060"}}, "geometry": {"type": "Point", "coordinates": [43.216635331675064, 52.70696862197101]}}, {"type": "Feature", "properties": {"norad_id": 66371, "name": "STARLINK-35804", "group": "last-30-days", "lat": 53.07477774805372, "lon": 49.455077333340604, "alt_km": 338.3210848921435, "timestamp": "2025-12-02T23:34:14.289675+00:00", "meta": {"OBJECT_NAME": "STARLINK-35804", "OBJECT_ID": "2025-254Z", "EPOCH": "2025-12-02T12:32:05.989056", "MEAN_MOTION": 15.74245989, "ECCENTRICITY": 0.0001241, "INCLINATION": 53.1569, "RA_OF_ASC_NODE": 325.5848, "ARG_OF_PERICENTER": 84.3497, "MEAN_ANOMALY": 275.7664, "EPHEMERIS_TYPE": 0, "CLASSIFICATION_TYPE": "U", "NORAD_CAT_ID": 66371, "ELEMENT_SET_NO": 999, "REV_AT_EPOCH": 407, "BSTAR": 0.0012598, "MEAN_MOTION_DOT": 0.00188518, "MEAN_MOTION_DDOT": 0}, "tle": {"line1": "1 66371U 25254Z   25336.52229154  .00188518  00000+0  12598-2 0  9997", "line2": "2 66371  53.1569 325.5848 0001241  84.3497 275.7664 15.74245989  4074"}}, "geometry": {"type": "Point", "coordinates": [49.455077333340604, 53.07477774805372]}}, {"type": "Feature", "properties": {"norad_id": 66372, "name": "STARLINK-35821", "group": "last-30-days", "lat": 52.93741840279608, "lon": 46.41512162415108, "alt_km": 338.0963475671242, "timestamp": "2025-12-02T23:34:14.289687+00:00", "meta": {"OBJECT_NAME": "STARLINK-35821", "OBJECT_ID": "2025-254AA", "EPOCH": "2025-12-02T11:01:09.721056", "MEAN_MOTION": 15.74257341, "ECCENTRICITY": 0.0001544, "INCLINATION": 53.1571, "RA_OF_ASC_NODE": 325.9033, "ARG_OF_PERICENTER": 104.4391, "MEAN_ANOMALY": 255.6801, "EPHEMERIS_TYPE": 0, "CLASSIFICATION_TYPE": "U", "NORAD_CAT_ID": 66372, "ELEMENT_SET_NO": 999, "REV_AT_EPOCH": 406, "BSTAR": 0.0012748, "MEAN_MOTION_DOT": 0.00190917, "MEAN_MOTION_DDOT": 0}, "tle": {"line1": "1 66372U 25254AA  25336.45914029  .00190917  00000+0  12748-2 0  9995", "line2": "2 66372  53.1571 325.9033 0001544 104.4391 255.6801 15.74257341  4065"}}, "geometry": {"type": "Point", "coordinates": [46.41512162415108, 52.93741840279608]}}]}